STARLINK-35972          
1 66638U 25271X   25363.29541193  .00066328  00000+0  16513-2 0  9991
2 66638  53.1590 108.7088 0001129  72.0827 288.0301 15.39666548  6769
STARLINK-35908          
1 66639U 25271Y   25363.29076669  .00058761  00000+0  14655-2 0  9990
2 66639  53.1601 108.6770 0001446 105.3266 254.7899 15.39666393  6769
STARLINK-35921          
1 66640U 25271Z   25362.58599395  .00051455  00000+0  12880-2 0  9990
2 66640  53.1611 112.1023 0001249  87.1427 272.9721 15.39612681  6655
STARLINK-35923          
1 66641U 25271AA  25363.00001157  .00015400  00000+0  39467-3 0  9994
2 66641  53.1592 109.7955 0001338  87.4209 227.1900 15.39583555  5804
STARLINK-35926          
1 66642U 25271AB  25363.27219055  .00088471  00000+0  21957-2 0  9994
2 66642  53.1591 108.5622 0001491  82.1932 277.9242 15.39626225  6723
STARLINK-35918          
1 66643U 25271AC  25362.63697771  .00038920  00000+0  97749-3 0  9996
2 66643  53.1616 111.7083 0000785  74.5131 285.5960 15.39636987  6661
STARLINK-35938          
1 66644U 25271AD  25362.81810892  .00055271  00000+0  13786-2 0  9994
2 66644  53.1600 110.7045 0001666  81.5424 278.5770 15.39688795  6692
SHENZHOU-22             
1 66645U 25272A   25363.17274057  .00025856  00000+0  31523-3 0  9999
2 66645  41.4674 276.8939 0009230 173.1352 186.9615 15.59842432265984
COSMOS 2597 (RODNIK-S *)
1 66647U 25273A   25363.22814758  .00000013  00000+0  20628-4 0  9999
2 66647  82.4998 276.2093 0010788 226.1787 133.8402 12.42797136  4183
COSMOS 2598 (RODNIK-S *)
1 66648U 25273B   25363.28520176  .00000022  00000+0  88803-4 0  9993
2 66648  82.5031 276.1570 0008321 197.5346 162.5448 12.43233812  4191
COSMOS 2599 (RODNIK-S *)
1 66649U 25273C   25363.24449140  .00000018  00000+0  58164-4 0  9993
2 66649  82.5049 276.2420 0006376 234.7023 125.3460 12.41152491  4181
BEE-1000                
1 66650U 25274A   25363.25401120  .00002111  00000+0  21504-3 0  9996
2 66650  97.7403 290.1402 0011457 191.4674 168.6285 14.91721433  4862
