CCSDS_OMM_VERS = 2.0
CREATION_DATE  = 
ORIGINATOR     = 

OBJECT_NAME    = STARLINK-35972
OBJECT_ID      = 2025-271X
CENTER_NAME    = EARTH
REF_FRAME      = TEME
TIME_SYSTEM    = UTC
MEAN_ELEMENT_THEORY = SGP/SGP4

EPOCH          = 2025-12-29T07:05:23.590752
MEAN_MOTION    = 15.39666548
ECCENTRICITY   = .00011293
INCLINATION    = 53.1590
RA_OF_ASC_NODE = 108.7088
ARG_OF_PERICENTER = 72.0827
MEAN_ANOMALY   = 288.0301

EPHEMERIS_TYPE = 0
CLASSIFICATION_TYPE = U
NORAD_CAT_ID   = 66638
ELEMENT_SET_NO = 999
REV_AT_EPOCH   = 676
BSTAR          = .16512738E-2
MEAN_MOTION_DOT = .66328E-3
MEAN_MOTION_DDOT = 0

CCSDS_OMM_VERS = 2.0
CREATION_DATE  = 
ORIGINATOR     = 

OBJECT_NAME    = STARLINK-35908
OBJECT_ID      = 2025-271Y
CENTER_NAME    = EARTH
REF_FRAME      = TEME
TIME_SYSTEM    = UTC
MEAN_ELEMENT_THEORY = SGP/SGP4

EPOCH          = 2025-12-29T06:58:42.242016
MEAN_MOTION    = 15.39666393
ECCENTRICITY   = .00014466
INCLINATION    = 53.1601
RA_OF_ASC_NODE = 108.6770
ARG_OF_PERICENTER = 105.3266
MEAN_ANOMALY   = 254.7899

EPHEMERIS_TYPE = 0
CLASSIFICATION_TYPE = U
NORAD_CAT_ID   = 66639
ELEMENT_SET_NO = 999
REV_AT_EPOCH   = 676
BSTAR          = .14654776E-2
MEAN_MOTION_DOT = .58761E-3
MEAN_MOTION_DDOT = 0

CCSDS_OMM_VERS = 2.0
CREATION_DATE  = 
ORIGINATOR     = 

OBJECT_NAME    = STARLINK-35921
OBJECT_ID      = 2025-271Z
CENTER_NAME    = EARTH
REF_FRAME      = TEME
TIME_SYSTEM    = UTC
MEAN_ELEMENT_THEORY = SGP/SGP4

EPOCH          = 2025-12-28T14:03:49.877280
MEAN_MOTION    = 15.39612681
ECCENTRICITY   = .0001249
INCLINATION    = 53.1611
RA_OF_ASC_NODE = 112.1023
ARG_OF_PERICENTER = 87.1427
MEAN_ANOMALY   = 272.9721

EPHEMERIS_TYPE = 0
CLASSIFICATION_TYPE = U
NORAD_CAT_ID   = 66640
ELEMENT_SET_NO = 999
REV_AT_EPOCH   = 665
BSTAR          = .1288E-2
MEAN_MOTION_DOT = .51455E-3
MEAN_MOTION_DDOT = 0

CCSDS_OMM_VERS = 2.0
CREATION_DATE  = 
ORIGINATOR     = 

OBJECT_NAME    = STARLINK-35923
OBJECT_ID      = 2025-271AA
CENTER_NAME    = EARTH
REF_FRAME      = TEME
TIME_SYSTEM    = UTC
MEAN_ELEMENT_THEORY = SGP/SGP4

EPOCH          = 2025-12-29T00:00:00.999648
MEAN_MOTION    = 15.39583555
ECCENTRICITY   = .00013386
INCLINATION    = 53.1592
RA_OF_ASC_NODE = 109.7955
ARG_OF_PERICENTER = 87.4209
MEAN_ANOMALY   = 227.1900

EPHEMERIS_TYPE = 0
CLASSIFICATION_TYPE = U
NORAD_CAT_ID   = 66641
ELEMENT_SET_NO = 999
REV_AT_EPOCH   = 580
BSTAR          = .39467411E-3
MEAN_MOTION_DOT = .154E-3
MEAN_MOTION_DDOT = 0

CCSDS_OMM_VERS = 2.0
CREATION_DATE  = 
ORIGINATOR     = 

OBJECT_NAME    = STARLINK-35926
OBJECT_ID      = 2025-271AB
CENTER_NAME    = EARTH
REF_FRAME      = TEME
TIME_SYSTEM    = UTC
MEAN_ELEMENT_THEORY = SGP/SGP4

EPOCH          = 2025-12-29T06:31:57.263520
MEAN_MOTION    = 15.39626225
ECCENTRICITY   = .00014919
INCLINATION    = 53.1591
RA_OF_ASC_NODE = 108.5622
ARG_OF_PERICENTER = 82.1932
MEAN_ANOMALY   = 277.9242

EPHEMERIS_TYPE = 0
CLASSIFICATION_TYPE = U
NORAD_CAT_ID   = 66642
ELEMENT_SET_NO = 999
REV_AT_EPOCH   = 672
BSTAR          = .21957146E-2
MEAN_MOTION_DOT = .88471E-3
MEAN_MOTION_DDOT = 0

CCSDS_OMM_VERS = 2.0
CREATION_DATE  = 
ORIGINATOR     = 

OBJECT_NAME    = STARLINK-35918
OBJECT_ID      = 2025-271AC
CENTER_NAME    = EARTH
REF_FRAME      = TEME
TIME_SYSTEM    = UTC
MEAN_ELEMENT_THEORY = SGP/SGP4

EPOCH          = 2025-12-28T15:17:14.874144
MEAN_MOTION    = 15.39636987
ECCENTRICITY   = .00007859
INCLINATION    = 53.1616
RA_OF_ASC_NODE = 111.7083
ARG_OF_PERICENTER = 74.5131
MEAN_ANOMALY   = 285.5960

EPHEMERIS_TYPE = 0
CLASSIFICATION_TYPE = U
NORAD_CAT_ID   = 66643
ELEMENT_SET_NO = 999
REV_AT_EPOCH   = 666
BSTAR          = .97748501E-3
MEAN_MOTION_DOT = .3892E-3
MEAN_MOTION_DDOT = 0

CCSDS_OMM_VERS = 2.0
CREATION_DATE  = 
ORIGINATOR     = 

OBJECT_NAME    = STARLINK-35938
OBJECT_ID      = 2025-271AD
CENTER_NAME    = EARTH
REF_FRAME      = TEME
TIME_SYSTEM    = UTC
MEAN_ELEMENT_THEORY = SGP/SGP4

EPOCH          = 2025-12-28T19:38:04.610688
MEAN_MOTION    = 15.39688795
ECCENTRICITY   = .00016664
INCLINATION    = 53.1600
RA_OF_ASC_NODE = 110.7045
ARG_OF_PERICENTER = 81.5424
MEAN_ANOMALY   = 278.5770

EPHEMERIS_TYPE = 0
CLASSIFICATION_TYPE = U
NORAD_CAT_ID   = 66644
ELEMENT_SET_NO = 999
REV_AT_EPOCH   = 669
BSTAR          = .137863E-2
MEAN_MOTION_DOT = .55271E-3
MEAN_MOTION_DDOT = 0

CCSDS_OMM_VERS = 2.0
CREATION_DATE  = 
ORIGINATOR     = 

OBJECT_NAME    = SHENZHOU-22
OBJECT_ID      = 2025-272A
CENTER_NAME    = EARTH
REF_FRAME      = TEME
TIME_SYSTEM    = UTC
MEAN_ELEMENT_THEORY = SGP/SGP4

EPOCH          = 2025-12-29T04:08:44.785248
MEAN_MOTION    = 15.59842432
ECCENTRICITY   = .00092303
INCLINATION    = 41.4674
RA_OF_ASC_NODE = 276.8939
ARG_OF_PERICENTER = 173.1352
MEAN_ANOMALY   = 186.9615

EPHEMERIS_TYPE = 0
CLASSIFICATION_TYPE = U
NORAD_CAT_ID   = 66645
ELEMENT_SET_NO = 999
REV_AT_EPOCH   = 26598
BSTAR          = .31522987E-3
MEAN_MOTION_DOT = .25856E-3
MEAN_MOTION_DDOT = 0

CCSDS_OMM_VERS = 2.0
CREATION_DATE  = 
ORIGINATOR     = 

OBJECT_NAME    = COSMOS 2597 (RODNIK-S 22)
OBJECT_ID      = 2025-273A
CENTER_NAME    = EARTH
REF_FRAME      = TEME
TIME_SYSTEM    = UTC
MEAN_ELEMENT_THEORY = SGP/SGP4

EPOCH          = 2025-12-29T05:28:31.950912
MEAN_MOTION    = 12.42797136
ECCENTRICITY   = .00107886
INCLINATION    = 82.4998
RA_OF_ASC_NODE = 276.2093
ARG_OF_PERICENTER = 226.1787
MEAN_ANOMALY   = 133.8402

EPHEMERIS_TYPE = 0
CLASSIFICATION_TYPE = U
NORAD_CAT_ID   = 66647
ELEMENT_SET_NO = 999
REV_AT_EPOCH   = 418
BSTAR          = .20627812E-4
MEAN_MOTION_DOT = .13E-6
MEAN_MOTION_DDOT = 0

CCSDS_OMM_VERS = 2.0
CREATION_DATE  = 
ORIGINATOR     = 

OBJECT_NAME    = COSMOS 2598 (RODNIK-S 23)
OBJECT_ID      = 2025-273B
CENTER_NAME    = EARTH
REF_FRAME      = TEME
TIME_SYSTEM    = UTC
MEAN_ELEMENT_THEORY = SGP/SGP4

EPOCH          = 2025-12-29T06:50:41.432064
MEAN_MOTION    = 12.43233812
ECCENTRICITY   = .00083213
INCLINATION    = 82.5031
RA_OF_ASC_NODE = 276.1570
ARG_OF_PERICENTER = 197.5346
MEAN_ANOMALY   = 162.5448

EPHEMERIS_TYPE = 0
CLASSIFICATION_TYPE = U
NORAD_CAT_ID   = 66648
ELEMENT_SET_NO = 999
REV_AT_EPOCH   = 419
BSTAR          = .88802926E-4
MEAN_MOTION_DOT = .22E-6
MEAN_MOTION_DDOT = 0

CCSDS_OMM_VERS = 2.0
CREATION_DATE  = 
ORIGINATOR     = 

OBJECT_NAME    = COSMOS 2599 (RODNIK-S 24)
OBJECT_ID      = 2025-273C
CENTER_NAME    = EARTH
REF_FRAME      = TEME
TIME_SYSTEM    = UTC
MEAN_ELEMENT_THEORY = SGP/SGP4

EPOCH          = 2025-12-29T05:52:04.056960
MEAN_MOTION    = 12.41152491
ECCENTRICITY   = .00063768
INCLINATION    = 82.5049
RA_OF_ASC_NODE = 276.2420
ARG_OF_PERICENTER = 234.7023
MEAN_ANOMALY   = 125.3460

EPHEMERIS_TYPE = 0
CLASSIFICATION_TYPE = U
NORAD_CAT_ID   = 66649
ELEMENT_SET_NO = 999
REV_AT_EPOCH   = 418
BSTAR          = .58163586E-4
MEAN_MOTION_DOT = .18E-6
MEAN_MOTION_DDOT = 0

CCSDS_OMM_VERS = 2.0
CREATION_DATE  = 
ORIGINATOR     = 

OBJECT_NAME    = BEE-1000
OBJECT_ID      = 2025-274A
CENTER_NAME    = EARTH
REF_FRAME      = TEME
TIME_SYSTEM    = UTC
MEAN_ELEMENT_THEORY = SGP/SGP4

EPOCH          = 2025-12-29T06:05:46.567680
MEAN_MOTION    = 14.91721433
ECCENTRICITY   = .00114571
INCLINATION    = 97.7403
RA_OF_ASC_NODE = 290.1402
ARG_OF_PERICENTER = 191.4674
MEAN_ANOMALY   = 168.6285

EPHEMERIS_TYPE = 0
CLASSIFICATION_TYPE = U
NORAD_CAT_ID   = 66650
ELEMENT_SET_NO = 999
REV_AT_EPOCH   = 486
BSTAR          = .21504456E-3
MEAN_MOTION_DOT = .2111E-4
MEAN_MOTION_DDOT = 0

